{"fetched_at":"2026-05-08T13:28:44Z","count":2804,"tles":[{"name":"CRYOSAT 2","line1":"1 36508U 10013A   26128.17672521  .00000088  00000+0  21015-4 0  9995","line2":"2 36508  92.0309 267.5867 0002643  88.3252 271.8257 14.51897313852279","category":"Other"},{"name":"CXO","line1":"1 25867U 99040B   26129.70737146  .00000792  00000+0  00000+0 0  9991","line2":"2 25867  55.5364 117.7999 7900392 310.4423   0.0547  0.37799268 17171","category":"Other"},{"name":"SKYTERRA 1","line1":"1 37218U 10061A   26128.22908390 -.00000109  00000+0  00000+0 0  9990","line2":"2 37218   5.0409  50.8749 0003220  11.2649 145.0712  1.00273024 56790","category":"Other"},{"name":"INTEGRAL","line1":"1 27540U 02048A   26104.44928421  .00000076  00000+0  00000+0 0  9990","line2":"2 27540  90.3648 350.3238 8677917 262.2218 199.2355  0.37572165 26392","category":"Other"},{"name":"COSMOS 2251 DEB","line1":"1 34454U 93036SX  26104.90836000  .00000369  00000+0  12711-3 0  9992","line2":"2 34454  74.0591  50.7644 0033864  85.2864 275.2156 14.39005658898397","category":"Other"},{"name":"LEMUR-2-STELLA","line1":"1 60533U 24149BT  26128.15822891  .00009430  00000+0  56905-3 0  9995","line2":"2 60533  97.6729 210.4684 0001913 124.3581 235.7829 15.10947206 94455","category":"Other"},{"name":"NUSAT-26 (M SOMERVILLE)","line1":"1 52184U 22033AD  26128.19058925  .00009860  00000+0  24210-3 0  9992","line2":"2 52184  97.2351 207.6252 0006193  44.0927 316.0813 15.40857841 98549","category":"Other"},{"name":"IRIDIUM 122","line1":"1 42957U 17061C   26128.15567971  .00000011  00000+0 -30405-5 0  9991","line2":"2 42957  86.3993  41.9165 0002180  85.7402 274.4043 14.34217674449044","category":"Other"},{"name":"KEPLER-16 (ASTRAEUS)","line1":"1 51057U 22002CB  23361.73878944  .00011196  00000+0  42995-3 0  9998","line2":"2 51057  97.4160  66.5425 0004556 285.3284  74.7451 15.26610701108205","category":"Other"},{"name":"PANDORA","line1":"1 67395U 26004AJ  26127.95831411  .00000744  00000+0  87010-4 0  9996","line2":"2 67395  97.8042 127.2451 0003727 258.7949 101.2849 14.88002661 17297","category":"Other"},{"name":"COSMOS 2564 [GLONASS-M]","line1":"1 54377U 22161A   26126.47703062  .00000028  00000+0  00000+0 0  9992","line2":"2 54377  64.7390 194.0959 0011333 221.0908 138.8996  2.13102031 26743","category":"GPS"},{"name":"IRIDIUM 142","line1":"1 43256U 18030H   26127.85366553  .00000062  00000+0  15186-4 0  9993","line2":"2 43256  86.3930 307.2257 0002154  84.4078 275.7364 14.34218653424359","category":"Other"},{"name":"BEIDOU-3 M17","line1":"1 43706U 18093A   26128.14646425  .00000035  00000+0  00000+0 0  9998","line2":"2 43706  54.1670 183.6552 0009114 291.3927 140.8313  1.86228640 50791","category":"GPS"},{"name":"TURKMENALEM52E/MONACOSAT","line1":"1 40617U 15023A   26128.12267264  .00000111  00000+0  00000+0 0  9999","line2":"2 40617   0.0406  85.3756 0003194 323.9063 272.8552  1.00272396 40440","category":"Other"},{"name":"STARLINK-2169","line1":"1 47752U 21017AG  26128.02991685  .00086929  00000+0  12627-2 0  9998","line2":"2 47752  53.1588 282.0442 0002267 312.9693  47.1129 15.55088460287068","category":"Starlink"},{"name":"GSAT0226 (GALILEO 31)","line1":"1 61183U 24167B   26126.44507225  .00000007  00000+0  00000+0 0  9990","line2":"2 61183  55.1961 222.4661 0001953 202.7942 159.0633  1.70474623 10142","category":"GPS"},{"name":"RASSVET-3 12","line1":"1 68371U 26061M   26127.82935213 -.00072185  00000+0 -41490-3 0  9996","line2":"2 68371  82.2968  57.6752 0001046 281.6300  78.4848 15.78913009  7161","category":"Other"},{"name":"SENTINEL-2C","line1":"1 60989U 24157A   26128.17255505  .00000081  00000+0  47357-4 0  9998","line2":"2 60989  98.5696 203.5179 0001518  96.7371 263.3985 14.30818262 87266","category":"Other"},{"name":"SENTINEL-1A","line1":"1 39634U 14016A   26128.18465934  .00000053  00000+0  20854-4 0  9996","line2":"2 39634  98.1795 136.3003 0001419  83.5504 276.5857 14.59198518644186","category":"Other"},{"name":"NAVSTAR 65 (USA 213)","line1":"1 36585U 10022A   26128.06770000  .00000004  00000+0  00000+0 0  9993","line2":"2 36585  54.2747 210.1783 0126535  66.1047 291.0427  2.00560484116783","category":"GPS"},{"name":"GSAT0101 (GALILEO-PFM)","line1":"1 37846U 11060A   26127.37411161 -.00000070  00000+0  00000+0 0  9994","line2":"2 37846  57.0086 342.8684 0003865  35.0743 324.9893  1.70475870 90427","category":"GPS"},{"name":"STRATOSAT-TK 1 (RS52S)","line1":"1 57167U 23091B   26010.59363612  .08733485  25619-5  12458-2 0  9993","line2":"2 57167  97.4978  91.1570 0009532 282.8011  77.2220 16.34765267141469","category":"Other"},{"name":"GOES 17","line1":"1 43226U 18022A   26128.15683264 -.00000174  00000+0  00000+0 0  9995","line2":"2 43226   0.8351  86.2618 0000712 319.6445 147.0603  1.00271487 30025","category":"Weather"},{"name":"STARLINK-1008","line1":"1 44714U 19074B   26127.76079842  .00014042  00000+0  28611-3 0  9993","line2":"2 44714  53.1545 261.6131 0001364  17.5989 342.5065 15.46542200357951","category":"Starlink"},{"name":"GSAT0204 (GALILEO 8)","line1":"1 40545U 15017B   26127.40774074 -.00000071  00000+0  00000+0 0  9990","line2":"2 40545  56.8071 342.7261 0002092 284.8102  75.2044  1.70475861 31555","category":"GPS"},{"name":"BEIDOU-2 M3","line1":"1 38250U 12018A   26126.84293580 -.00000045  00000+0  00000+0 0  9994","line2":"2 38250  55.7940 306.2679 0019626 277.3703  82.3976  1.86230118 95173","category":"GPS"},{"name":"NAVSTAR 64 (USA 206)","line1":"1 35752U 09043A   26127.47978713 -.00000078  00000+0  00000+0 0  9996","line2":"2 35752  56.1859  29.0510 0053209  81.6858  93.5415  2.00556600122545","category":"GPS"},{"name":"NAVSTAR 62 (USA 201)","line1":"1 32711U 08012A   26127.25459946  .00000059  00000+0  00000+0 0  9999","line2":"2 32711  54.4903 151.5601 0210144 247.2766 110.5375  2.00571378132939","category":"GPS"},{"name":"GPS BIIF-8","line1":"1 40294U 14068A   26127.04177346 -.00000075  00000+0  00000+0 0  9999","line2":"2 40294  56.9607  32.5404 0065741  69.1857 291.5454  2.00573782 84388","category":"GPS"},{"name":"BEIDOU-3S IGSO-1S","line1":"1 40549U 15019A   26127.94024892 -.00000160  00000+0  00000+0 0  9990","line2":"2 40549  49.2725 295.9439 0037619 191.0398 171.6943  1.00259614 40677","category":"GPS"},{"name":"BEIDOU-2 IGSO-4","line1":"1 37763U 11038A   26127.08566644  .00000028  00000+0  00000+0 0  9994","line2":"2 37763  54.5895 166.0525 0159176 231.8688 309.0637  1.00254387 54236","category":"GPS"},{"name":"SPOT 7","line1":"1 40053U 14034A   26128.18346983  .00000199  00000+0  49827-4 0  9997","line2":"2 40053  98.0644 191.7015 0001398  78.5193 281.6165 14.60923013631292","category":"Other"},{"name":"GPS BIIR-08","line1":"1 27663U 03005A   26127.21919635  .00000002  00000+0  00000+0 0  9996","line2":"2 27663  54.8898 216.5965 0148101  52.9922 306.0208  2.00562817170486","category":"GPS"},{"name":"BEIDOU-2 G6","line1":"1 38953U 12059A   26127.91873578 -.00000167  00000+0  00000+0 0  9994","line2":"2 38953   4.3200  73.9391 0010829 319.2795 247.3426  1.00273670 49509","category":"GPS"},{"name":"GPS BIIF-5","line1":"1 39533U 14008A   26127.30066598  .00000058  00000+0  00000+0 0  9992","line2":"2 39533  53.6469 150.9874 0083991 230.4284 128.8757  2.00557246 88864","category":"GPS"},{"name":"COSMOS 2419 (714)","line1":"1 28915U 05050A   08024.34439810  .00000035  00000-0  10000-3 0  6024","line2":"2 28915  64.8638 180.6190 0007887 352.2607  34.6530  2.13102053 16209","category":"Other"},{"name":"NAVSTAR 53 (USA 175)","line1":"1 28129U 03058A   26127.04848573 -.00000087  00000+0  00000+0 0  9999","line2":"2 28129  55.0030  24.7904 0002598 330.6357  29.3848  1.92678585163672","category":"GPS"},{"name":"GPS BIIR-14M","line1":"1 28874U 05038A   26127.47481361 -.00000020  00000+0  00000+0 0  9998","line2":"2 28874  54.9128 274.8196 0127750 295.9144  68.7104  2.00568592151025","category":"GPS"},{"name":"GSAT0202 (GALILEO 6)","line1":"1 40129U 14050B   26127.17071140 -.00000037  00000+0  00000+0 0  9994","line2":"2 40129  48.9385 274.2010 1669302 178.5193 182.0620  1.85520741 79729","category":"GPS"},{"name":"BEIDOU-2 IGSO-2","line1":"1 37256U 10068A   26126.82717209 -.00000199  00000+0  00000+0 0  9999","line2":"2 37256  47.6271 272.3432 0052277 211.0703 144.6242  1.00297293 56379","category":"GPS"},{"name":"GSAT0205 (GALILEO 9)","line1":"1 40889U 15045A   26115.63255192 -.00000038  00000+0  00000+0 0  9992","line2":"2 40889  54.9613 223.1764 0005159 266.9978  92.9342  1.67410754 66085","category":"GPS"},{"name":"BEIDOU-2 G1","line1":"1 36287U 10001A   26128.24352999 -.00000270  00000+0  00000+0 0  9998","line2":"2 36287   4.2005  60.5139 0003404 304.2203  89.5120  1.00272151 59770","category":"GPS"},{"name":"NAVSTAR 52 (USA 168)","line1":"1 27704U 03010A   26128.03297163 -.00000060  00000+0  00000+0 0  9999","line2":"2 27704  54.8374 326.6571 0003386   0.7492 172.5638  1.94743238169138","category":"GPS"},{"name":"BEIJING-3B","line1":"1 53587U 22103A   26128.18214936  .00001036  00000+0  12093-3 0  9996","line2":"2 53587  97.8016 206.2913 0024932 182.4478 177.6620 14.87095433201149","category":"Other"},{"name":"GSAT0206 (GALILEO 10)","line1":"1 40890U 15045B   26127.39642078  .00000007  00000+0  00000+0 0  9998","line2":"2 40890  54.9571 222.7308 0001793  27.6644 332.3865  1.70474082 66349","category":"GPS"},{"name":"ICEYE-X6","line1":"1 46497U 20068M   26128.21725339  .00001592  00000+0  11911-3 0  9999","line2":"2 46497  98.0973 119.9894 0006086 212.3501 147.7351 15.04311531307229","category":"Other"},{"name":"NAVSTAR 82 (USA 343)","line1":"1 55268U 23009A   26126.56820279  .00000055  00000+0  00000+0 0  9994","line2":"2 55268  55.1158 150.1548 0005801 314.7345  39.4736  2.00574558 24406","category":"GPS"},{"name":"NAVSTAR 58 (USA 190)","line1":"1 29486U 06042A   26128.12464593  .00000067  00000+0  00000+0 0  9995","line2":"2 29486  54.7045 152.9295 0106127  53.6311 318.0592  2.00572177143596","category":"GPS"}]}